[{"OBJECT_NAME":"STARLINK-1640","OBJECT_ID":"2020-057BJ","EPOCH":"2026-03-10T00:00:02.999808","MEAN_MOTION":15.53857916,"ECCENTRICITY":0.00082651,"INCLINATION":53.0515,"RA_OF_ASC_NODE":297.5988,"ARG_OF_PERICENTER":141.807,"MEAN_ANOMALY":35.0921,"EPHEMERIS_TYPE":0,"CLASSIFICATION_TYPE":"U","NORAD_CAT_ID":46173,"ELEMENT_SET_NO":999,"REV_AT_EPOCH":581,"BSTAR":0.0024555453,"MEAN_MOTION_DOT":0.00163818,"MEAN_MOTION_DDOT":0},{"OBJECT_NAME":"OBJECT B","OBJECT_ID":"2024-016B","EPOCH":"2026-03-09T23:07:32.206944","MEAN_MOTION":15.56634272,"ECCENTRICITY":0.00048188,"INCLINATION":97.4479,"RA_OF_ASC_NODE":160.469,"ARG_OF_PERICENTER":75.9496,"MEAN_ANOMALY":284.2294,"EPHEMERIS_TYPE":0,"CLASSIFICATION_TYPE":"U","NORAD_CAT_ID":58821,"ELEMENT_SET_NO":999,"REV_AT_EPOCH":11866,"BSTAR":0.0010784899,"MEAN_MOTION_DOT":0.0007733,"MEAN_MOTION_DDOT":0}]
